[{"OBJECT_NAME":"TEVEL2-3","OBJECT_ID":"2025-052J","EPOCH":"2026-03-09T15:29:22.754400","MEAN_MOTION":15.30377031,"ECCENTRICITY":0.0004761,"INCLINATION":97.3994,"RA_OF_ASC_NODE":324.7775,"ARG_OF_PERICENTER":105.7353,"MEAN_ANOMALY":254.4413,"EPHEMERIS_TYPE":0,"CLASSIFICATION_TYPE":"U","NORAD_CAT_ID":63218,"ELEMENT_SET_NO":999,"REV_AT_EPOCH":5485,"BSTAR":0.00069446,"MEAN_MOTION_DOT":0.00020365,"MEAN_MOTION_DDOT":0},{"OBJECT_NAME":"STARLINK-33903","OBJECT_ID":"2025-092AA","EPOCH":"2026-03-09T06:58:31.836864","MEAN_MOTION":15.27590184,"ECCENTRICITY":0.00017604,"INCLINATION":43.0062,"RA_OF_ASC_NODE":174.7963,"ARG_OF_PERICENTER":272.7263,"MEAN_ANOMALY":87.3387,"EPHEMERIS_TYPE":0,"CLASSIFICATION_TYPE":"U","NORAD_CAT_ID":63828,"ELEMENT_SET_NO":999,"REV_AT_EPOCH":4860,"BSTAR":0.0010205538,"MEAN_MOTION_DOT":0.00027937,"MEAN_MOTION_DDOT":0}]
